CCSDS_OMM_VERS = 2.0
CREATION_DATE  = 
ORIGINATOR     = 

OBJECT_NAME    = ALOS (DAICHI)
OBJECT_ID      = 2006-002A
CENTER_NAME    = EARTH
REF_FRAME      = TEME
TIME_SYSTEM    = UTC
MEAN_ELEMENT_THEORY = SGP/SGP4

EPOCH          = 2026-02-12T10:47:50.345664
MEAN_MOTION    = 14.69725875
ECCENTRICITY   = .0001941
INCLINATION    = 98.1173
RA_OF_ASC_NODE = 359.5410
ARG_OF_PERICENTER = 61.7200
MEAN_ANOMALY   = 298.4202

EPHEMERIS_TYPE = 0
CLASSIFICATION_TYPE = U
NORAD_CAT_ID   = 28931
ELEMENT_SET_NO = 999
REV_AT_EPOCH   = 6977
BSTAR          = .28519E-3
MEAN_MOTION_DOT = .165E-4
MEAN_MOTION_DDOT = 0

CCSDS_OMM_VERS = 2.0
CREATION_DATE  = 
ORIGINATOR     = 

OBJECT_NAME    = H-2A R/B
OBJECT_ID      = 2006-002B
CENTER_NAME    = EARTH
REF_FRAME      = TEME
TIME_SYSTEM    = UTC
MEAN_ELEMENT_THEORY = SGP/SGP4

EPOCH          = 2026-02-12T09:32:51.881280
MEAN_MOTION    = 15.15903763
ECCENTRICITY   = .0052504
INCLINATION    = 98.2361
RA_OF_ASC_NODE = 188.2660
ARG_OF_PERICENTER = 328.4122
MEAN_ANOMALY   = 31.3960

EPHEMERIS_TYPE = 0
CLASSIFICATION_TYPE = U
NORAD_CAT_ID   = 28932
ELEMENT_SET_NO = 999
REV_AT_EPOCH   = 9060
BSTAR          = .50044E-3
MEAN_MOTION_DOT = .9851E-4
MEAN_MOTION_DDOT = 0

CCSDS_OMM_VERS = 2.0
CREATION_DATE  = 
ORIGINATOR     = 

OBJECT_NAME    = RESURS-DK 1
OBJECT_ID      = 2006-021A
CENTER_NAME    = EARTH
REF_FRAME      = TEME
TIME_SYSTEM    = UTC
MEAN_ELEMENT_THEORY = SGP/SGP4

EPOCH          = 2026-02-12T03:25:09.338016
MEAN_MOTION    = 15.12596727
ECCENTRICITY   = .00042605
INCLINATION    = 69.9344
RA_OF_ASC_NODE = 303.1005
ARG_OF_PERICENTER = 200.4602
MEAN_ANOMALY   = 159.6394

EPHEMERIS_TYPE = 0
CLASSIFICATION_TYPE = U
NORAD_CAT_ID   = 29228
ELEMENT_SET_NO = 999
REV_AT_EPOCH   = 8366
BSTAR          = .17540989E-3
MEAN_MOTION_DOT = .2963E-4
MEAN_MOTION_DDOT = 0

CCSDS_OMM_VERS = 2.0
CREATION_DATE  = 
ORIGINATOR     = 

OBJECT_NAME    = CZ-4B R/B
OBJECT_ID      = 2006-046C
CENTER_NAME    = EARTH
REF_FRAME      = TEME
TIME_SYSTEM    = UTC
MEAN_ELEMENT_THEORY = SGP/SGP4

EPOCH          = 2026-02-12T01:52:29.869536
MEAN_MOTION    = 15.16625827
ECCENTRICITY   = .00333363
INCLINATION    = 97.5650
RA_OF_ASC_NODE = 88.0542
ARG_OF_PERICENTER = 359.1537
MEAN_ANOMALY   = 0.9633

EPHEMERIS_TYPE = 0
CLASSIFICATION_TYPE = U
NORAD_CAT_ID   = 29507
ELEMENT_SET_NO = 999
REV_AT_EPOCH   = 5616
BSTAR          = .28988006E-3
MEAN_MOTION_DOT = .5678E-4
MEAN_MOTION_DDOT = 0

CCSDS_OMM_VERS = 2.0
CREATION_DATE  = 
ORIGINATOR     = 

OBJECT_NAME    = CZ-2C R/B
OBJECT_ID      = 2007-010B
CENTER_NAME    = EARTH
REF_FRAME      = TEME
TIME_SYSTEM    = UTC
MEAN_ELEMENT_THEORY = SGP/SGP4

EPOCH          = 2026-02-12T07:02:25.675008
MEAN_MOTION    = 14.20237340
ECCENTRICITY   = .005909
INCLINATION    = 98.3970
RA_OF_ASC_NODE = 157.8472
ARG_OF_PERICENTER = 9.2239
MEAN_ANOMALY   = 351.0009

EPHEMERIS_TYPE = 0
CLASSIFICATION_TYPE = U
NORAD_CAT_ID   = 31114
ELEMENT_SET_NO = 999
REV_AT_EPOCH   = 97611
BSTAR          = .76577E-4
MEAN_MOTION_DOT = .125E-5
MEAN_MOTION_DDOT = 0

CCSDS_OMM_VERS = 2.0
CREATION_DATE  = 
ORIGINATOR     = 

OBJECT_NAME    = COSMO-SKYMED 1
OBJECT_ID      = 2007-023A
CENTER_NAME    = EARTH
REF_FRAME      = TEME
TIME_SYSTEM    = UTC
MEAN_ELEMENT_THEORY = SGP/SGP4

EPOCH          = 2026-02-12T12:32:19.842432
MEAN_MOTION    = 14.96332490
ECCENTRICITY   = .0000956
INCLINATION    = 97.8859
RA_OF_ASC_NODE = 234.3566
ARG_OF_PERICENTER = 91.9323
MEAN_ANOMALY   = 268.2007

EPHEMERIS_TYPE = 0
CLASSIFICATION_TYPE = U
NORAD_CAT_ID   = 31598
ELEMENT_SET_NO = 999
REV_AT_EPOCH   = 1114
BSTAR          = .37056E-3
MEAN_MOTION_DOT = .4133E-4
MEAN_MOTION_DDOT = 0

CCSDS_OMM_VERS = 2.0
CREATION_DATE  = 
ORIGINATOR     = 

OBJECT_NAME    = COSMOS 2428
OBJECT_ID      = 2007-029A
CENTER_NAME    = EARTH
REF_FRAME      = TEME
TIME_SYSTEM    = UTC
MEAN_ELEMENT_THEORY = SGP/SGP4

EPOCH          = 2026-02-12T01:09:44.495424
MEAN_MOTION    = 14.12935198
ECCENTRICITY   = .00075424
INCLINATION    = 70.9396
RA_OF_ASC_NODE = 257.1679
ARG_OF_PERICENTER = 305.4959
MEAN_ANOMALY   = 54.5457

EPHEMERIS_TYPE = 0
CLASSIFICATION_TYPE = U
NORAD_CAT_ID   = 31792
ELEMENT_SET_NO = 999
REV_AT_EPOCH   = 96047
BSTAR          = .19118086E-3
MEAN_MOTION_DOT = .308E-5
MEAN_MOTION_DDOT = 0

CCSDS_OMM_VERS = 2.0
CREATION_DATE  = 
ORIGINATOR     = 

OBJECT_NAME    = SL-16 R/B
OBJECT_ID      = 2007-029B
CENTER_NAME    = EARTH
REF_FRAME      = TEME
TIME_SYSTEM    = UTC
MEAN_ELEMENT_THEORY = SGP/SGP4

EPOCH          = 2026-02-12T10:59:05.472672
MEAN_MOTION    = 14.14834946
ECCENTRICITY   = .000213
INCLINATION    = 70.9740
RA_OF_ASC_NODE = 225.4219
ARG_OF_PERICENTER = 280.7205
MEAN_ANOMALY   = 103.4774

EPHEMERIS_TYPE = 0
CLASSIFICATION_TYPE = U
NORAD_CAT_ID   = 31793
ELEMENT_SET_NO = 999
REV_AT_EPOCH   = 96180
BSTAR          = .17548E-3
MEAN_MOTION_DOT = .291E-5
MEAN_MOTION_DDOT = 0

CCSDS_OMM_VERS = 2.0
CREATION_DATE  = 
ORIGINATOR     = 

OBJECT_NAME    = KORONAS-FOTON
OBJECT_ID      = 2009-003A
CENTER_NAME    = EARTH
REF_FRAME      = TEME
TIME_SYSTEM    = UTC
MEAN_ELEMENT_THEORY = SGP/SGP4

EPOCH          = 2026-02-12T05:06:12.451968
MEAN_MOTION    = 15.42650772
ECCENTRICITY   = .0009002
INCLINATION    = 82.4317
RA_OF_ASC_NODE = 302.3494
ARG_OF_PERICENTER = 246.4664
MEAN_ANOMALY   = 113.5637

EPHEMERIS_TYPE = 0
CLASSIFICATION_TYPE = U
NORAD_CAT_ID   = 33504
ELEMENT_SET_NO = 999
REV_AT_EPOCH   = 94181
BSTAR          = .33739E-3
MEAN_MOTION_DOT = .14756E-3
MEAN_MOTION_DDOT = 0

CCSDS_OMM_VERS = 2.0
CREATION_DATE  = 
ORIGINATOR     = 

OBJECT_NAME    = CZ-2C R/B
OBJECT_ID      = 2011-030B
CENTER_NAME    = EARTH
REF_FRAME      = TEME
TIME_SYSTEM    = UTC
MEAN_ELEMENT_THEORY = SGP/SGP4

EPOCH          = 2026-02-12T11:47:53.534112
MEAN_MOTION    = 14.81123240
ECCENTRICITY   = .0054172
INCLINATION    = 97.8498
RA_OF_ASC_NODE = 1.2696
ARG_OF_PERICENTER = 72.7799
MEAN_ANOMALY   = 43.3834

EPHEMERIS_TYPE = 0
CLASSIFICATION_TYPE = U
NORAD_CAT_ID   = 37731
ELEMENT_SET_NO = 999
REV_AT_EPOCH   = 78636
BSTAR          = .23018E-3
MEAN_MOTION_DOT = .178E-4
MEAN_MOTION_DDOT = 0

CCSDS_OMM_VERS = 2.0
CREATION_DATE  = 
ORIGINATOR     = 

OBJECT_NAME    = H-2A R/B
OBJECT_ID      = 2012-025E
CENTER_NAME    = EARTH
REF_FRAME      = TEME
TIME_SYSTEM    = UTC
MEAN_ELEMENT_THEORY = SGP/SGP4

EPOCH          = 2026-02-12T11:55:23.373120
MEAN_MOTION    = 14.94941990
ECCENTRICITY   = .0045538
INCLINATION    = 98.4676
RA_OF_ASC_NODE = 8.5403
ARG_OF_PERICENTER = 36.6700
MEAN_ANOMALY   = 323.7620

EPHEMERIS_TYPE = 0
CLASSIFICATION_TYPE = U
NORAD_CAT_ID   = 38341
ELEMENT_SET_NO = 999
REV_AT_EPOCH   = 74445
BSTAR          = .40696E-3
MEAN_MOTION_DOT = .4467E-4
MEAN_MOTION_DDOT = 0

CCSDS_OMM_VERS = 2.0
CREATION_DATE  = 
ORIGINATOR     = 

OBJECT_NAME    = SHIJIAN-16 (SJ-16)
OBJECT_ID      = 2013-057A
CENTER_NAME    = EARTH
REF_FRAME      = TEME
TIME_SYSTEM    = UTC
MEAN_ELEMENT_THEORY = SGP/SGP4

EPOCH          = 2026-02-12T13:19:53.539392
MEAN_MOTION    = 14.92252052
ECCENTRICITY   = .0016619
INCLINATION    = 74.9706
RA_OF_ASC_NODE = 232.6662
ARG_OF_PERICENTER = 175.6689
MEAN_ANOMALY   = 184.4646

EPHEMERIS_TYPE = 0
CLASSIFICATION_TYPE = U
NORAD_CAT_ID   = 39358
ELEMENT_SET_NO = 999
REV_AT_EPOCH   = 66775
BSTAR          = .2094E-3
MEAN_MOTION_DOT = .2113E-4
MEAN_MOTION_DDOT = 0

